TOMORROW-S1             
1 60479U 24149M   26068.72470524  .00008620  00000+0  28856-3 0  9996
2 60479  97.3791 149.6044 0001819 207.2040 152.9106 15.31198362 86867
STARLINK-34581          
1 64745U 25144X   26068.59684808  .00016463  00000+0  56700-3 0  9992
2 64745  53.1583 181.7583 0001364  77.0417 283.0736 15.30185599 39698
